{"type": "FeatureCollection", "features": [ {"type": "Feature", "properties": {"norad_id": 66970, "name": "STARLINK-35703", "group": "last-30-days", "lat": -17.341365600927244, "lon": -84.30481593634153, "alt_km": 404.6357804554209, "timestamp": "2025-12-27T17:24:56.107828+00:00", "meta": {"OBJECT_NAME": "STARLINK-35703", "OBJECT_ID": "2025-288M", "EPOCH": "2025-12-27T12:00:02.000160", "MEAN_MOTION": 15.55698696, "ECCENTRICITY": 0.00014, "INCLINATION": 42.9998, "RA_OF_ASC_NODE": 77.4459, "ARG_OF_PERICENTER": 282.825, "MEAN_ANOMALY": 98.3092, "EPHEMERIS_TYPE": 0, "CLASSIFICATION_TYPE": "U", "NORAD_CAT_ID": 66970, "ELEMENT_SET_NO": 999, "REV_AT_EPOCH": 420, "BSTAR": -0.032689, "MEAN_MOTION_DOT": -0.02059448, "MEAN_MOTION_DDOT": 0}, "tle": {"line1": "1 66970U 25288M   25361.50002315 -.02059448  00000+0 -32689-1 0  9998", "line2": "2 66970  42.9998  77.4459 0001400 282.8250  98.3092 15.55698696  4206"}}, "geometry": {"type": "Point", "coordinates": [-84.30481593634153, -17.341365600927244]}}, {"type": "Feature", "properties": {"norad_id": 66971, "name": "STARLINK-35678", "group": "last-30-days", "lat": -7.20143013580929, "lon": -96.05052066363288, "alt_km": 403.8326675285325, "timestamp": "2025-12-27T17:24:56.107845+00:00", "meta": {"OBJECT_NAME": "STARLINK-35678", "OBJECT_ID": "2025-288N", "EPOCH": "2025-12-27T12:00:02.000160", "MEAN_MOTION": 15.55703228, "ECCENTRICITY": 0.0001398, "INCLINATION": 43, "RA_OF_ASC_NODE": 77.4856, "ARG_OF_PERICENTER": 281.8772, "MEAN_ANOMALY": 83.9187, "EPHEMERIS_TYPE": 0, "CLASSIFICATION_TYPE": "U", "NORAD_CAT_ID": 66971, "ELEMENT_SET_NO": 999, "REV_AT_EPOCH": 420, "BSTAR": -0.032798, "MEAN_MOTION_DOT": -0.02065885, "MEAN_MOTION_DDOT": 0}, "tle": {"line1": "1 66971U 25288N   25361.50002315 -.02065885  00000+0 -32798-1 0  9992", "line2": "2 66971  43.0000  77.4856 0001398 281.8772  83.9187 15.55703228  4201"}}, "geometry": {"type": "Point", "coordinates": [-96.05052066363288, -7.20143013580929]}}, {"type": "Feature", "properties": {"norad_id": 66972, "name": "STARLINK-34846", "group": "last-30-days", "lat": -8.491697095408231, "lon": -94.6285488296608, "alt_km": 403.7856235829995, "timestamp": "2025-12-27T17:24:56.107855+00:00", "meta": {"OBJECT_NAME": "STARLINK-34846", "OBJECT_ID": "2025-288P", "EPOCH": "2025-12-27T12:00:02.000160", "MEAN_MOTION": 15.55697588, "ECCENTRICITY": 0.0001556, "INCLINATION": 43.0002, "RA_OF_ASC_NODE": 77.4809, "ARG_OF_PERICENTER": 274.1973, "MEAN_ANOMALY": 93.5166, "EPHEMERIS_TYPE": 0, "CLASSIFICATION_TYPE": "U", "NORAD_CAT_ID": 66972, "ELEMENT_SET_NO": 999, "REV_AT_EPOCH": 420, "BSTAR": -0.032612, "MEAN_MOTION_DOT": -0.02055151, "MEAN_MOTION_DDOT": 0}, "tle": {"line1": "1 66972U 25288P   25361.50002315 -.02055151  00000+0 -32612-1 0  9993", "line2": "2 66972  43.0002  77.4809 0001556 274.1973  93.5166 15.55697588  4201"}}, "geometry": {"type": "Point", "coordinates": [-94.6285488296608, -8.491697095408231]}}, {"type": "Feature", "properties": {"norad_id": 66973, "name": "STARLINK-35778", "group": "last-30-days", "lat": -9.780285326362124, "lon": -93.19263790623171, "alt_km": 404.0847723369361, "timestamp": "2025-12-27T17:24:56.107865+00:00", "meta": {"OBJECT_NAME": "STARLINK-35778", "OBJECT_ID": "2025-288Q", "EPOCH": "2025-12-27T12:00:02.000160", "MEAN_MOTION": 15.55698102, "ECCENTRICITY": 0.0001423, "INCLINATION": 43.0002, "RA_OF_ASC_NODE": 77.4765, "ARG_OF_PERICENTER": 283.2734, "MEAN_ANOMALY": 86.3589, "EPHEMERIS_TYPE": 0, "CLASSIFICATION_TYPE": "U", "NORAD_CAT_ID": 66973, "ELEMENT_SET_NO": 999, "REV_AT_EPOCH": 420, "BSTAR": -0.032674, "MEAN_MOTION_DOT": -0.02058564, "MEAN_MOTION_DDOT": 0}, "tle": {"line1": "1 66973U 25288Q   25361.50002315 -.02058564  00000+0 -32674-1 0  9993", "line2": "2 66973  43.0002  77.4765 0001423 283.2734  86.3589 15.55698102  4204"}}, "geometry": {"type": "Point", "coordinates": [-93.19263790623171, -9.780285326362124]}}, {"type": "Feature", "properties": {"norad_id": 66974, "name": "STARLINK-35780", "group": "last-30-days", "lat": -11.060476357828213, "lon": -91.74814861174087, "alt_km": 404.10046170298483, "timestamp": "2025-12-27T17:24:56.107875+00:00", "meta": {"OBJECT_NAME": "STARLINK-35780", "OBJECT_ID": "2025-288R", "EPOCH": "2025-12-27T12:00:02.000160", "MEAN_MOTION": 15.55693021, "ECCENTRICITY": 0.000146, "INCLINATION": 43.0002, "RA_OF_ASC_NODE": 77.4721, "ARG_OF_PERICENTER": 279.0977, "MEAN_ANOMALY": 92.4525, "EPHEMERIS_TYPE": 0, "CLASSIFICATION_TYPE": "U", "NORAD_CAT_ID": 66974, "ELEMENT_SET_NO": 999, "REV_AT_EPOCH": 420, "BSTAR": -0.032461, "MEAN_MOTION_DOT": -0.02046269, "MEAN_MOTION_DDOT": 0}, "tle": {"line1": "1 66974U 25288R   25361.50002315 -.02046269  00000+0 -32461-1 0  9997", "line2": "2 66974  43.0002  77.4721 0001460 279.0977  92.4525 15.55693021  4203"}}, "geometry": {"type": "Point", "coordinates": [-91.74814861174087, -11.060476357828213]}}, {"type": "Feature", "properties": {"norad_id": 66975, "name": "STARLINK-35777", "group": "last-30-days", "lat": -13.602434102842215, "lon": -88.81779826024295, "alt_km": 404.24202208642146, "timestamp": "2025-12-27T17:24:56.107887+00:00", "meta": {"OBJECT_NAME": "STARLINK-35777", "OBJECT_ID": "2025-288S", "EPOCH": "2025-12-27T12:00:02.000160", "MEAN_MOTION": 15.55698556, "ECCENTRICITY": 0.0001429, "INCLINATION": 42.9997, "RA_OF_ASC_NODE": 77.4609, "ARG_OF_PERICENTER": 276.0105, "MEAN_ANOMALY": 99.3752, "EPHEMERIS_TYPE": 0, "CLASSIFICATION_TYPE": "U", "NORAD_CAT_ID": 66975, "ELEMENT_SET_NO": 999, "REV_AT_EPOCH": 420, "BSTAR": -0.03268, "MEAN_MOTION_DOT": -0.02058907, "MEAN_MOTION_DDOT": 0}, "tle": {"line1": "1 66975U 25288S   25361.50002315 -.02058907  00000+0 -32680-1 0  9993", "line2": "2 66975  42.9997  77.4609 0001429 276.0105  99.3752 15.55698556  4201"}}, "geometry": {"type": "Point", "coordinates": [-88.81779826024295, -13.602434102842215]}}, {"type": "Feature", "properties": {"norad_id": 66976, "name": "STARLINK-35772", "group": "last-30-days", "lat": -39.33021739762758, "lon": 16.125494613463918, "alt_km": 446.3110911171434, "timestamp": "2025-12-27T17:24:56.107916+00:00", "meta": {"OBJECT_NAME": "STARLINK-35772", "OBJECT_ID": "2025-288T", "EPOCH": "2025-12-27T12:00:02.000160", "MEAN_MOTION": 15.40667942, "ECCENTRICITY": 0.0001469, "INCLINATION": 43.0003, "RA_OF_ASC_NODE": 78.9819, "ARG_OF_PERICENTER": 285.3468, "MEAN_ANOMALY": 193.3956, "EPHEMERIS_TYPE": 0, "CLASSIFICATION_TYPE": "U", "NORAD_CAT_ID": 66976, "ELEMENT_SET_NO": 999, "REV_AT_EPOCH": 420, "BSTAR": 0.00088144, "MEAN_MOTION_DOT": 0.00036654, "MEAN_MOTION_DDOT": 0}, "tle": {"line1": "1 66976U 25288T   25361.50002315  .00036654  00000+0  88144-3 0  9993", "line2": "2 66976  43.0003  78.9819 0001469 285.3468 193.3956 15.40667942  4200"}}, "geometry": {"type": "Point", "coordinates": [16.125494613463918, -39.33021739762758]}}, {"type": "Feature", "properties": {"norad_id": 66977, "name": "STARLINK-35770", "group": "last-30-days", "lat": -14.85816495689457, "lon": -87.33113974496638, "alt_km": 404.3621364423443, "timestamp": "2025-12-27T17:24:56.107930+00:00", "meta": {"OBJECT_NAME": "STARLINK-35770", "OBJECT_ID": "2025-288U", "EPOCH": "2025-12-27T12:00:02.000160", "MEAN_MOTION": 15.55695053, "ECCENTRICITY": 0.0001369, "INCLINATION": 42.9997, "RA_OF_ASC_NODE": 77.4569, "ARG_OF_PERICENTER": 277.1316, "MEAN_ANOMALY": 100.1697, "EPHEMERIS_TYPE": 0, "CLASSIFICATION_TYPE": "U", "NORAD_CAT_ID": 66977, "ELEMENT_SET_NO": 999, "REV_AT_EPOCH": 420, "BSTAR": -0.032549, "MEAN_MOTION_DOT": -0.0205128, "MEAN_MOTION_DDOT": 0}, "tle": {"line1": "1 66977U 25288U   25361.50002315 -.02051280  00000+0 -32549-1 0  9996", "line2": "2 66977  42.9997  77.4569 0001369 277.1316 100.1697 15.55695053  4205"}}, "geometry": {"type": "Point", "coordinates": [-87.33113974496638, -14.85816495689457]}}, {"type": "Feature", "properties": {"norad_id": 66978, "name": "STARLINK-35787", "group": "last-30-days", "lat": -18.56599668717868, "lon": -82.76004968738654, "alt_km": 404.757286239751, "timestamp": "2025-12-27T17:24:56.107940+00:00", "meta": {"OBJECT_NAME": "STARLINK-35787", "OBJECT_ID": "2025-288V", "EPOCH": "2025-12-27T12:00:02.000160", "MEAN_MOTION": 15.55698957, "ECCENTRICITY": 0.0001407, "INCLINATION": 43, "RA_OF_ASC_NODE": 77.4418, "ARG_OF_PERICENTER": 285.1521, "MEAN_ANOMALY": 97.8993, "EPHEMERIS_TYPE": 0, "CLASSIFICATION_TYPE": "U", "NORAD_CAT_ID": 66978, "ELEMENT_SET_NO": 999, "REV_AT_EPOCH": 420, "BSTAR": -0.032707, "MEAN_MOTION_DOT": -0.02060482, "MEAN_MOTION_DDOT": 0}, "tle": {"line1": "1 66978U 25288V   25361.50002315 -.02060482  00000+0 -32707-1 0  9997", "line2": "2 66978  43.0000  77.4418 0001407 285.1521  97.8993 15.55698957  4203"}}, "geometry": {"type": "Point", "coordinates": [-82.76004968738654, -18.56599668717868]}}, {"type": "Feature", "properties": {"norad_id": 66979, "name": "STARLINK-36107", "group": "last-30-days", "lat": -19.777765261549572, "lon": -81.19357121680545, "alt_km": 404.6492836123507, "timestamp": "2025-12-27T17:24:56.107950+00:00", "meta": {"OBJECT_NAME": "STARLINK-36107", "OBJECT_ID": "2025-288W", "EPOCH": "2025-12-27T12:00:02.000160", "MEAN_MOTION": 15.55690331, "ECCENTRICITY": 0.0001401, "INCLINATION": 43.0002, "RA_OF_ASC_NODE": 77.4372, "ARG_OF_PERICENTER": 275.4335, "MEAN_ANOMALY": 109.5372, "EPHEMERIS_TYPE": 0, "CLASSIFICATION_TYPE": "U", "NORAD_CAT_ID": 66979, "ELEMENT_SET_NO": 999, "REV_AT_EPOCH": 420, "BSTAR": -0.032418, "MEAN_MOTION_DOT": -0.02043608, "MEAN_MOTION_DDOT": 0}, "tle": {"line1": "1 66979U 25288W   25361.50002315 -.02043608  00000+0 -32418-1 0  9998", "line2": "2 66979  43.0002  77.4372 0001401 275.4335 109.5372 15.55690331  4204"}}, "geometry": {"type": "Point", "coordinates": [-81.19357121680545, -19.777765261549572]}}]}